[{"OBJECT_NAME":"OBJECT B","OBJECT_ID":"2023-189B","EPOCH":"2026-03-09T23:19:13.152000","MEAN_MOTION":15.72871024,"ECCENTRICITY":0.00049112,"INCLINATION":97.414,"RA_OF_ASC_NODE":101.6861,"ARG_OF_PERICENTER":172.6117,"MEAN_ANOMALY":187.522,"EPHEMERIS_TYPE":0,"CLASSIFICATION_TYPE":"U","NORAD_CAT_ID":58503,"ELEMENT_SET_NO":999,"REV_AT_EPOCH":12706,"BSTAR":0.00074828171,"MEAN_MOTION_DOT":0.00102221,"MEAN_MOTION_DDOT":0},{"OBJECT_NAME":"STARLINK-11407 [DTC]","OBJECT_ID":"2024-209A","EPOCH":"2026-03-09T06:15:55.761984","MEAN_MOTION":15.69762357,"ECCENTRICITY":0.00014258,"INCLINATION":53.1568,"RA_OF_ASC_NODE":13.151,"ARG_OF_PERICENTER":72.2326,"MEAN_ANOMALY":287.8848,"EPHEMERIS_TYPE":0,"CLASSIFICATION_TYPE":"U","NORAD_CAT_ID":61939,"ELEMENT_SET_NO":999,"REV_AT_EPOCH":7667,"BSTAR":0.0019394396,"MEAN_MOTION_DOT":0.00241873,"MEAN_MOTION_DDOT":0}]
